NORAD_CAT_ID,OBJECT_NAME,OBJECT_TYPE,EPOCH,MEAN_MOTION,ECCENTRICITY,INCLINATION,RA_OF_ASC_NODE,ARG_OF_PERICENTER,MEAN_ANOMALY,BSTAR,MEAN_MOTION_DOT,MEAN_MOTION_DDOT,TLE_LINE0,TLE_LINE1,TLE_LINE2,SEMIMAJOR_AXIS,PERIOD,APOGEE,PERIGEE,DECAYED
55921.0,STARLINK-5861,PAYLOAD,2024-02-29 23:00:29,14.98332974,0.0002719,70.0019,7.011,271.0007,89.0841,2.9734e-06,-5.7e-07,0.0,0 STARLINK-5861,1 55921U 23037H   24060.95867510 -.00000057  00000-0  29734-5 0  9993,2 55921  70.0019   7.0110 0002719 271.0007  89.0841 14.98332974 52834,6950.184,96.107,573.938,570.159,0.0
55921.0,STARLINK-5861,PAYLOAD,2024-03-01 13:25:41,14.9835345,0.0002809,70.0017,5.4961,268.1229,91.9609,-0.0002967,-3.633e-05,0.0,0 STARLINK-5861,1 55921U 23037H   24061.55950706 -.00003633  00000-0 -29670-3 0  9991,2 55921  70.0017   5.4961 0002809 268.1229  91.9609 14.98353450 52927,6950.12,96.105,573.938,570.033,0.0
55921.0,STARLINK-5861,PAYLOAD,2024-03-01 21:26:22,14.98330836,0.0002719,70.0015,4.6543,269.4753,90.6094,9.5731e-05,1.049e-05,0.0,0 STARLINK-5861,1 55921U 23037H   24061.89331191  .00001049  00000-0  95731-4 0  9998,2 55921  70.0015   4.6543 0002719 269.4753  90.6094 14.98330836 53319,6950.19,96.107,573.945,570.166,0.0
55921.0,STARLINK-5861,PAYLOAD,2024-03-02 05:27:02,14.98335375,0.000268,70.0014,3.8125,269.6401,90.4451,0.00012426,1.39e-05,0.0,0 STARLINK-5861,1 55921U 23037H   24062.22710777  .00001390  00000-0  12426-3 0  9995,2 55921  70.0014   3.8125 0002680 269.6401  90.4451 14.98335375 53020,6950.176,96.107,573.904,570.179,0.0
55921.0,STARLINK-5861,PAYLOAD,2024-03-02 21:28:23,14.98330503,0.0002388,70.002,2.1304,252.2729,107.817,-3.1051e-05,-4.63e-06,0.0,0 STARLINK-5861,1 55921U 23037H   24062.89471406 -.00000463  00000-0 -31051-4 0  9999,2 55921  70.0020   2.1304 0002388 252.2729 107.8170 14.98330503 53124,6950.191,96.107,573.716,570.397,0.0
55921.0,STARLINK-5861,PAYLOAD,2024-03-03 03:52:55,14.98327021,0.0002897,70.0009,1.4557,267.3477,92.735,-6.5647e-05,-8.76e-06,0.0,0 STARLINK-5861,1 55921U 23037H   24063.16175780 -.00000876  00000-0 -65647-4 0  9992,2 55921  70.0009   1.4557 0002897 267.3477  92.7350 14.98327021 53500,6950.202,96.107,574.081,570.054,0.0
55921.0,STARLINK-5861,PAYLOAD,2024-03-03 05:29:03,14.98327948,0.000282,70.0014,1.2881,265.8835,94.2002,-4.6031e-05,-6.42e-06,0.0,0 STARLINK-5861,1 55921U 23037H   24063.22851691 -.00000642  00000-0 -46031-4 0  9998,2 55921  70.0014   1.2881 0002820 265.8835  94.2002 14.98327948 53173,6950.199,96.107,574.024,570.104,0.0
55921.0,STARLINK-5861,PAYLOAD,2024-03-03 21:30:24,14.98332991,0.000289,70.0014,359.6035,268.5592,91.5236,3.097e-05,2.77e-06,0.0,0 STARLINK-5861,1 55921U 23037H   24063.89611128  .00000277  00000-0  30970-4 0  9997,2 55921  70.0014 359.6035 0002890 268.5592  91.5236 14.98332991 53275,6950.184,96.107,574.057,570.04,0.0
55921.0,STARLINK-5861,PAYLOAD,2024-03-04 05:31:03,14.98348775,0.0003179,70.0004,358.7629,271.2313,88.8482,9.447e-05,1.035e-05,0.0,0 STARLINK-5861,1 55921U 23037H   24064.22989768  .00001035  00000-0  94470-4 0  9991,2 55921  70.0004 358.7629 0003179 271.2313  88.8482 14.98348775 53668,6950.135,96.106,574.209,569.79,0.0
55921.0,STARLINK-5861,PAYLOAD,2024-03-04 19:56:17,14.98323812,0.0003102,70.0009,357.2471,265.3345,94.746,3.5643e-05,3.32e-06,0.0,0 STARLINK-5861,1 55921U 23037H   24064.83075300  .00000332  00000-0  35643-4 0  9992,2 55921  70.0009 357.2471 0003102 265.3345  94.7460 14.98323812 53754,6950.212,96.107,574.233,569.921,0.0
55921.0,STARLINK-5861,PAYLOAD,2024-03-04 23:08:33,14.98322971,0.000309,69.9999,356.9111,267.5912,92.4894,2.6787e-05,2.27e-06,0.0,0 STARLINK-5861,1 55921U 23037H   24064.96427446  .00000227  00000-0  26787-4 0  9990,2 55921  69.9999 356.9111 0003090 267.5912  92.4894 14.98322971 53432,6950.215,96.107,574.227,569.932,0.0
55921.0,STARLINK-5861,PAYLOAD,2024-03-05 05:33:05,14.98323852,0.0003306,70.0004,356.2387,273.2059,86.8722,6.8529e-05,7.25e-06,0.0,0 STARLINK-5861,1 55921U 23037H   24065.23131386  .00000725  00000-0  68529-4 0  9999,2 55921  70.0004 356.2387 0003306 273.2059  86.8722 14.98323852 53476,6950.212,96.107,574.375,569.779,0.0
55921.0,STARLINK-5861,PAYLOAD,2024-03-05 21:34:26,14.98329393,0.0002991,70.0007,354.5556,269.4521,90.6296,-8.4628e-06,-1.94e-06,0.0,0 STARLINK-5861,1 55921U 23037H   24065.89891362 -.00000194  00000-0 -84628-5 0  9999,2 55921  70.0007 354.5556 0002991 269.4521  90.6296 14.98329393 53912,6950.195,96.107,574.139,569.981,0.0
55921.0,STARLINK-5861,PAYLOAD,2024-03-06 03:58:57,14.98337962,0.0002737,70.0015,353.8827,270.4185,89.6661,5.5758e-06,-2.6e-07,0.0,0 STARLINK-5861,1 55921U 23037H   24066.16594750 -.00000026  00000-0  55758-5 0  9996,2 55921  70.0015 353.8827 0002737 270.4185  89.6661 14.98337962 53959,6950.168,96.106,573.936,570.131,0.0
55921.0,STARLINK-5861,PAYLOAD,2024-03-06 05:35:05,14.98340121,0.0002851,70.0013,353.7144,270.5255,89.5577,1.7294e-05,1.13e-06,0.0,0 STARLINK-5861,1 55921U 23037H   24066.23270558  .00000113  00000-0  17294-4 0  9999,2 55921  70.0013 353.7144 0002851 270.5255  89.5577 14.98340121 53624,6950.162,96.106,574.008,570.045,0.0
55921.0,STARLINK-5861,PAYLOAD,2024-03-06 20:00:18,14.98322904,0.0002665,70.0024,352.2002,269.5556,90.5298,0.00015612,1.77e-05,0.0,0 STARLINK-5861,1 55921U 23037H   24066.83355190  .00001770  00000-0  15612-3 0  9992,2 55921  70.0024 352.2002 0002665 269.5556  90.5298 14.98322904 54057,6950.215,96.107,573.932,570.228,0.0
55921.0,STARLINK-5861,PAYLOAD,2024-03-07 12:01:38,14.98362064,0.0002739,70.0024,350.5142,282.8804,77.2049,-0.00060678,-7.331e-05,0.0,0 STARLINK-5861,1 55921U 23037H   24067.50114532 -.00007331  00000-0 -60678-3 0  9993,2 55921  70.0024 350.5142 0002739 282.8804  77.2049 14.98362064 53819,6950.094,96.105,573.862,570.055,0.0
55921.0,STARLINK-5861,PAYLOAD,2024-03-08 02:26:51,14.98332541,0.0002698,70.0016,349.0002,275.3601,84.725,0.00018244,2.085e-05,0.0,0 STARLINK-5861,1 55921U 23037H   24068.10198817  .00002085  00000-0  18244-3 0  9999,2 55921  70.0016 349.0002 0002698 275.3601  84.7250 14.98332541 54246,6950.185,96.107,573.925,570.175,0.0
55921.0,STARLINK-5861,PAYLOAD,2024-03-08 12:03:40,14.98329667,0.0002352,70.0023,347.99,277.9218,82.1674,-6.126e-05,-8.24e-06,0.0,0 STARLINK-5861,1 55921U 23037H   24068.50255662 -.00000824  00000-0 -61260-4 0  9993,2 55921  70.0023 347.9900 0002352 277.9218  82.1674 14.98329667 54301,6950.194,96.107,573.694,570.424,0.0
55921.0,STARLINK-5861,PAYLOAD,2024-03-09 04:05:00,14.98332716,0.0002509,70.0016,346.3069,266.8988,93.1884,9.2759e-05,1.014e-05,0.0,0 STARLINK-5861,1 55921U 23037H   24069.17014938  .00001014  00000-0  92759-4 0  9993,2 55921  70.0016 346.3069 0002509 266.8988  93.1884 14.98332716 54402,6950.184,96.107,573.793,570.306,0.0
55921.0,STARLINK-5861,PAYLOAD,2024-03-09 12:05:41,14.98334452,0.0002728,70.0025,345.465,278.9718,81.1132,4.0017e-05,3.85e-06,0.0,0 STARLINK-5861,1 55921U 23037H   24069.50394866  .00000385  00000-0  40017-4 0  9991,2 55921  70.0025 345.4650 0002728 278.9718  81.1132 14.98334452 54116,6950.179,96.107,573.94,570.148,0.0
55921.0,STARLINK-5861,PAYLOAD,2024-03-09 18:30:13,14.98329534,0.0003,70.0013,344.7917,271.0618,89.0197,0.00012262,1.37e-05,0.0,0 STARLINK-5861,1 55921U 23037H   24069.77098837  .00001370  00000-0  12262-3 0  9994,2 55921  70.0013 344.7917 0003000 271.0618  89.0197 14.98329534 54155,6950.194,96.107,574.144,569.974,0.0
55921.0,STARLINK-5861,PAYLOAD,2024-03-10 04:07:01,14.98332774,0.0002462,70.0013,343.7814,259.3857,100.7025,7.7994e-05,8.38e-06,0.0,0 STARLINK-5861,1 55921U 23037H   24070.17154757  .00000838  00000-0  77994-4 0  9996,2 55921  70.0013 343.7814 0002462 259.3857 100.7025 14.98332774 54550,6950.184,96.107,573.76,570.338,0.0
55921.0,STARLINK-5861,PAYLOAD,2024-03-10 21:44:30,14.98328725,0.0002631,70.0014,341.9302,271.9439,88.1418,-4.1254e-05,-5.85e-06,0.0,0 STARLINK-5861,1 55921U 23037H   24070.90591337 -.00000585  00000-0 -41254-4 0  9997,2 55921  70.0014 341.9302 0002631 271.9439  88.1418 14.98328725 54665,6950.197,96.107,573.89,570.233,0.0
55921.0,STARLINK-5861,PAYLOAD,2024-03-11 04:09:02,14.98331782,0.0002667,70.0012,341.2572,272.9618,87.1235,-3.477e-05,-5.08e-06,0.0,0 STARLINK-5861,1 55921U 23037H   24071.17295129 -.00000508  00000-0 -34770-4 0  9997,2 55921  70.0012 341.2572 0002667 272.9618  87.1235 14.98331782 54364,6950.187,96.107,573.906,570.199,0.0
55921.0,STARLINK-5861,PAYLOAD,2024-03-11 16:58:01,14.98392271,0.000255,70.0012,339.9105,277.8029,82.2841,0.00059016,6.967e-05,0.0,0 STARLINK-5861,1 55921U 23037H   24071.70696316  .00006967  00000-0  59016-3 0  9991,2 55921  70.0012 339.9105 0002550 277.8029  82.2841 14.98392271 54786,6950.0,96.103,573.638,570.093,0.0
55921.0,STARLINK-5861,PAYLOAD,2024-03-12 04:11:03,14.98319234,0.0002924,70.0002,338.7319,272.5799,87.5025,-0.00025077,-3.083e-05,0.0,0 STARLINK-5861,1 55921U 23037H   24072.17434556 -.00003083  00000-0 -25077-3 0  9997,2 55921  70.0002 338.7319 0002924 272.5799  87.5025 14.98319234 54858,6950.226,96.108,574.123,570.059,0.0
55921.0,STARLINK-5861,PAYLOAD,2024-03-12 23:24:40,14.98316322,0.000298,70.0004,336.7121,270.919,89.1628,-0.0001042,-1.336e-05,0.0,0 STARLINK-5861,1 55921U 23037H   24072.97546994 -.00001336  00000-0 -10420-3 0  9990,2 55921  70.0004 336.7121 0002980 270.9190  89.1628 14.98316322 54636,6950.235,96.108,574.171,570.029,0.0
55921.0,STARLINK-5861,PAYLOAD,2024-03-13 04:13:04,14.98316819,0.0002763,70.0007,336.2081,269.6768,90.4075,-0.00011342,-1.445e-05,0.0,0 STARLINK-5861,1 55921U 23037H   24073.17575161 -.00001445  00000-0 -11342-3 0  9996,2 55921  70.0007 336.2081 0002763 269.6768  90.4075 14.98316819 55008,6950.234,96.108,574.019,570.178,0.0
55921.0,STARLINK-5861,PAYLOAD,2024-03-13 10:37:36,14.98334118,0.0002909,70.0,335.5334,273.7364,86.3463,-0.00031416,-3.84e-05,0.0,0 STARLINK-5861,1 55921U 23037H   24073.44278548 -.00003840  00000-0 -31416-3 0  9990,2 55921  70.0000 335.5334 0002909 273.7364  86.3463 14.98334118 55045,6950.18,96.107,574.067,570.023,0.0
